[{"OBJECT_NAME":"STARLINK-11365 [DTC]","OBJECT_ID":"2025-024H","EPOCH":"2026-03-09T14:03:29.021184","MEAN_MOTION":15.70871886,"ECCENTRICITY":0.0001911,"INCLINATION":42.9993,"RA_OF_ASC_NODE":181.7792,"ARG_OF_PERICENTER":281.1969,"MEAN_ANOMALY":78.8684,"EPHEMERIS_TYPE":0,"CLASSIFICATION_TYPE":"U","NORAD_CAT_ID":62886,"ELEMENT_SET_NO":999,"REV_AT_EPOCH":6345,"BSTAR":0.00057319,"MEAN_MOTION_DOT":0.00073856,"MEAN_MOTION_DDOT":0},{"OBJECT_NAME":"OBJECT AC","OBJECT_ID":"2021-022AC","EPOCH":"2026-03-09T23:52:41.913120","MEAN_MOTION":15.70257251,"ECCENTRICITY":0.00077249,"INCLINATION":97.3906,"RA_OF_ASC_NODE":343.806,"ARG_OF_PERICENTER":62.9634,"MEAN_ANOMALY":297.2416,"EPHEMERIS_TYPE":0,"CLASSIFICATION_TYPE":"U","NORAD_CAT_ID":47958,"ELEMENT_SET_NO":999,"REV_AT_EPOCH":27427,"BSTAR":0.0010525747,"MEAN_MOTION_DOT":0.00129469,"MEAN_MOTION_DDOT":0}]
